ONEWEB-0311             
1 49097U 21075Y   24157.57929589 -.00000269  00000+0 -72549-3 0  9995
2 49097  87.9164 153.4817 0001575  87.9682 272.1630 13.17643965135963
ONEWEB-0312             
1 49098U 21075Z   24157.44167358  .00000084  00000+0  18226-3 0  9995
2 49098  87.9162 153.5410 0001763  74.5765 285.5562 13.17647665135924
ONEWEB-0313             
1 49099U 21075AA  24157.49544815  .00000085  00000+0  18500-3 0  9994
2 49099  87.9161 153.5327 0001795  80.7322 279.4013 13.17650444135926
ONEWEB-0314             
1 49100U 21075AB  24157.48913725  .00000056  00000+0  10988-3 0  9996
2 49100  87.9158 153.4925 0001700  75.0181 285.1139 13.17650314135899
ONEWEB-0315             
1 49101U 21075AC  24157.49843029 -.00000135  00000+0 -40951-3 0  9990
2 49101  87.8925 138.3380 0002020  88.8676 271.2684 13.12533820137884
ONEWEB-0316             
1 49102U 21075AD  24157.39081970 -.00000055  00000+0 -17284-3 0  9993
2 49102  87.9135 123.1298 0001821  85.4765 274.6575 13.18687418139448
ONEWEB-0317             
1 49103U 21075AE  24157.49199847  .00000127  00000+0  31794-3 0  9998
2 49103  87.8928 138.3486 0002484  83.5649 276.5762 13.12546586137903
ONEWEB-0318             
1 49104U 21075AF  24157.46353413 -.00000005  00000+0 -46307-4 0  9991
2 49104  87.9136 123.1092 0001741  86.0540 274.0791 13.18688523139411
